QIANFAN-33              
1 61566U 24185Q   25287.93532022  .00000612  00000+0  43350-3 0  9990
2 61566  88.9745  85.3607 0008133 137.8561 222.3243 13.96473540 60952
QIANFAN-34              
1 61567U 24185R   25287.92768108  .00000649  00000+0  41536-3 0  9990
2 61567  88.9724  85.0031 0007147 139.8889 220.2820 14.02225824 61112
QIANFAN-35              
1 61568U 24185S   25287.90187169  .00001159  00000+0  46324-3 0  9998
2 61568  88.9752  83.7820 0008609 113.0958 247.1145 14.27815180 61788
QIANFAN-36              
1 61569U 24185T   25287.91226390  .00000185  00000+0  24905-3 0  9999
2 61569  88.9731  87.1702 0005347 196.6570 163.4409 13.55563659 59956
QIANFAN-37              
1 62238U 24232B   25287.88904828  .00000171  00000+0  24628-3 0  9998
2 62238  89.0016  47.2574 0001162 112.8181 247.3093 13.50970805 91228
QIANFAN-38              
1 62239U 24232C   25287.91372829  .00000162  00000+0  23160-3 0  9993
2 62239  89.0018  47.1667 0014419  12.4933 347.6573 13.50979257 91285
QIANFAN-39              
1 62240U 24232D   25287.94413294  .00000775  00000+0  32300-3 0  9996
2 62240  89.0019  44.0194 0014006 270.2008  89.7580 14.25289755 93013
QIANFAN-40              
1 62241U 24232E   25287.94661668  .00000157  00000+0  22490-3 0  9990
2 62241  89.0051  46.7316 0013697  20.8912 339.2796 13.50978831 91650
